address,bed_num,name,phone,post_code
昂仁县县城,,昂仁县藏医院,0892-8312159,858500
,,,,
,,,,
昂仁县县城,,昂仁县人民医院,0892-8312160,858500
,,,,
,,,,
西藏日喀则地区白朗县,,白朗县人民医院,08023-8302221,857300
,,,,
,,,,
定结县江嘎中心路01号,,定结县人民医院,0892-8252285,857900
,,,,
,,,,
定日县协格尔镇曲夏村,,定日县人民医院,0892-8262257,858200
,,,,
,,,,
西藏那曲地区岗巴县,,岗巴县人民医院,08023-8232177,857700
,,,,
,,,,
吉隆县县城,,吉隆县人民医院,0892-8282477,858700
,,,,
,,,,
西藏日喀则地区江孜县,,江孜县人民医院,08023-8173508,857400
,,,,
,,,,
西藏日喀则地区康马县,,康马县人民医院,08023-8212267,857500
,,,,
,,,,
拉孜县县城,,拉孜县人民医院,0892-8322130,858100
,,,,
,,,,
西藏日喀则地区南木林县,,南木林县人民医院,08023-8342235,857100
,,,,
,,,,
西藏日喀则地区聂拉木县,,聂拉木县人民医院,08023-8272123,858300
,,,,
,,,,
西藏那曲地区聂拉木县,,聂拉木县樟木口岸医院,08023-8742842,858400
,,,,
,,,,
仁布县强钦街09号,,仁布县人民医院,0892-8182259,857200
,,,,
,,,,
日喀则市上海路3号,,日喀则地区藏医院,0892-8822653;0892-8822858,857000
,,,,
贺兰县北街,,贺兰县妇幼保健所,0951-8061203,750200
,,,,
,,,,
贺兰县金贵镇,,贺兰县金贵人民医院,0951-8894027,750201
,,,,
,,,,
贺兰县立岗镇,,贺兰县立岗区人民医院,0951-8822014,750201
,,,,
,,,,
贺兰县洪广镇,,贺兰县暖泉区人民医院,0951-8991020,750202
,,,,
,,,,
贺兰县西街,,贺兰县人民医院,0951-8061214,750200
,,,,
,,,,
贺兰县东街,,贺兰县中医院,0951-8064480,750200
,,,,
,,,,
灵武市柳树巷,,灵武市妇幼保健所,0951-4021258,751400
,,,,
,,,,
灵武市健康路17号,,灵武市人民医院,0951-4030216;4030228,751400
,,,,
,,,,
宁夏灵武市城,,灵武市中医医院,0951-4021257,751400
,,,,
,,,,
宁夏灵武市区谢家井11号,,灵武市中医院,0951-4030983,751400
,,,,
,,,,
银川市南门汽车站,,银川博爱医院(民营),0951-3990000(总),750004
,,,,
,,,,
宁夏银川市满和北街782号,,银川凤城医院(民营),0951-6717797,750004
,,,,
,,,,
银川市城区民乐西街8号,,银川国龙医院(民营),0951-4109690,750004
,,,,
,,,,
银川市中山北街307号,,银川国龙医院二分院(民营),0951-6726640;6729269,750002
,,,,
,,,,
银川市金凤区政府向南300米处,,银川国龙医院一分院银川金凤区医院(民营),0951-5036167,750011
,,,,
海南省海口市海甸岛沿江三西路13号,,海南大学医院,0898-66259191,570208
,,,,
,,,,
海口市国贸路国贸大厦C座A栋,,海南东湖中西医结合整形美容医院(民营),0898-66743484,570125
,,,,
,,,,
海口市人民大道74号八菱大厦1-3层,,海南港岛联合中医肿瘤医院(民营),0898-66259455,570300
,,,,
,,,,
海南省海口市滨海大道填海区,,海南骨科医院,0898-68539299,570105
,,,,
,,,,
海口市人民大道,,海南美容整形医院,0898-66264688,570300
,,,,
,,,,
海口市人民大道,,海南美容整形医院(民营),0898-66264688,570208
,,,,
,,,,
海南省海口市琼山区琼州大道9号,,海南南方肝肠病医院(民营),0898-66288019,571100
,,,,
,,,,
海口市,,海南南方肛肠病医院,0898-65885733,570300
,,,,
,,,,
海口市龙昆南路工业大道东10号,,海南省安宁医院,0898-66988629,570206
,,,,
,,,,
海口市南航路24号,,海南省地质医院,,570206
,,,,
,,,,
五指山市爱民路24号,,海南省第二人民医院,0898-86622337;0898-86624104,572200
,,,,
,,,,
海南省三亚市解放四路146号,,海南省第三人民医院,0898-88292888,572000
,,,,
,,,,
三亚市解放四路146号,,海南省第三人民医院(原海南省农垦三亚医院),0898-88298115、88298958,572000
,,,,
,,,,
海口市龙昆南路15号,,海南省妇幼保健院,0898-66789460;66755204,570206
,,,,
,,,,
海口市秀英区海口港,,海南省港务局海港医院,0898-68623822,570011
,,,,
青海省西宁市大通县桥头镇八一路1号,,大通红十字医院,0971-2813461,810101
,,,,
,,,,
青海省西宁市大通县,,大通回族土族自治县第二人民医院,0971-2831059,810102
,,,,
,,,,
青海省西宁市大通县桥头镇文化路l号,,大通回族土族自治县人民医院,0971-2722933,810100
,,,,
,,,,
大通回族土族自治县,,大通县第二人民医院,0971-2831136,810102
,,,,
,,,,
大通县桥头镇文化路1号,,大通县第一人民医院,0971-2722933,810100
,,,,
,,,,
湟源县西大街35号,,湟源县人民医院,0972-2432791,812100
,,,,
,,,,
青海省湟源县东大街,,湟源县中医院,0972-2432946,812100
,,,,
,,,,
青海省西宁市湟中县鲁沙尔镇佛光路,,湟中县藏医院,0971-2235209,811600
,,,,
,,,,
青海省湟中县南街39号,,湟中县第二人民医院,0972-2297370,811601
,,,,
,,,,
湟中县和平路137号,,湟中县第一人民医院,0972-2232305,811600
,,,,
,,,,
青海省西宁市湟中县鲁沙尔镇团结北路2号,,湟中县妇幼保健中心,0971-2232125,811600
,,,,
,,,,
湟中县团结南部睡43号,,湟中县中医院,0972-2232460,811600
,,,,
,,,,
西宁市柴达木路52号,,西宁钢厂职工医院,0971-5299539;5299946,810005
,,,,
,,,,
西宁市城北区祁连路西87号,,西宁市城北区中医院,0971-6146418,810003
,,,,
,,,,
西宁市西大街6号,,西宁市城西区人民医院,0971-6143143,810007
,,,,
和平区东兴大街120号,,和平区安定医院,022-27225387,300021
,,,,
,,,,
和平区赤封道73号,,和平区妇产医院,022-27129478、27119227,300041
,,,,
,,,,
和平区土场路33号,,和平区南营门医院,022-27301363、27821363,300052
,,,,
,,,,
和平区河南路36号,,和平区四面钟医院,022-27314978,300021
,,,,
,,,,
和平区平东道29号,,和平区天津市心理卫生专科医院,022-27300132、27227891,300020
,,,,
,,,,
和平区建设路41号,,和平区小白楼医院,022-23393814,300040
,,,,
,,,,
和平区吴家窑二号路31号,,和平区新兴医院,022-23354693,300070
,,,,
,,,,
和平区辽北路15号,,和平区兴安医院,022-27225608,300021
,,,,
,,,,
和平区福安街1号,,和平区牙科医院,022-27222863,300021
,,,,
,,,,
和平区贵州路43号,,和平区中医院,022-23317955、23317931,300050
,,,,
,,,,
和平区,,和平医院,022-27123410,300020
,,,,
,,,,
和平区,,滨水地段医院,022-23382374,300050
,,,,
,,,,
和平区,,南门医院,022-27273488,300021
,,,,
,,,,
和平区,,上河头医院,022-26951908,300020
,,,,
,,,,
天津市和平区四平车道25号,,天津博爱眼科中心,022-27304105;27300537,300020
,,,,
贵阳市黔灵西路99号,,贵阳爱丽医院(民营),0851-6850726,550001
,,,,
,,,,
贵阳市合群路124号,,贵阳白志祥骨科医院(民营),0851-6824379,550001
,,,,
,,,,
贵州省贵阳市中华中路137号华联酒店后楼,,贵阳长江医院(民营),0851-5814836;0851-5114936,550002
,,,,
,,,,
贵阳市瑞金中路61号,,贵阳朝歌肾病医院(民营),0851-5611466,550003
,,,,
,,,,
贵阳市新添大道南段220号,,贵阳东方骨伤医院(民营),0851-6766960,550004
,,,,
,,,,
贵阳市汪家湾64号,,贵阳肝病医院(民营),0851-6839759,550001
,,,,
,,,,
贵阳市螺丝山路8号,,贵阳肛肠杂病医院(民营),0851-5921030,550002
,,,,
,,,,
贵州省贵阳市油榨街38号,,贵阳钢厂职工医院贵阳烧伤医院,0851-5595605;5532931,550005
,,,,
,,,,
贵阳市富水中路5号,,贵阳恒康医院(民营),0851-5880883,550001
,,,,
,,,,
贵阳市南明区小河镇长江路1号,,贵阳华烽电器总厂职工医院,0851-3833195,550009
,,,,
,,,,
贵阳市瑞金中路65号,,贵阳华明优视眼科医院(民营),0851-8100288;8100388,550000
,,,,
,,,,
贵阳市延安西路91号,,贵阳华西医院(民营),0851-6580761,550003
,,,,
,,,,
贵阳市区飞山街,,贵阳济世医院(民营),0851-5283555,550003
,,,,
,,,,
贵阳南明区沙冲路25号,,贵阳颈腰痛专科医院,0851-5793150,550002
,,,,
,,,,
贵阳市花溪区,,贵阳矿山机械厂职工医院,0851-3843261,550003
,,,,
皋兰县北辰路50号,,皋兰县人民医院,0931-5722567,730200
,,,,
,,,,
兰州市七里河区彭家坪中心坪5号,,兰州安定医院,0931-2861419,730050
,,,,
,,,,
甘肃省兰州市红古区窑街镇后街75号,,兰州白求恩医院(民营),,730080
,,,,
,,,,
甘肃省兰州市城关区鹰滩滩尖子268号,,兰州慈佛堂医院(民营),0931-8509606,730000
,,,,
,,,,
兰州市城关区滩尖子268号,,兰州慈和堂医院(民营),0931-8510022、8509610,730000
,,,,
,,,,
兰州市城关区萃英门80号,,兰州大学第二医院,0931-8942279;0931-8942114;0931-8458109,730030
,,,,
,,,,
兰州市东岗西路1号,,兰州大学第一医院,0931-8625200-6801;0931-8619797,730000
,,,,
,,,,
兰州市西固区福利路733号,,兰州大学附属天浩医院,0931-7555317,730030
,,,,
,,,,
兰州市城关区皋兰路46号,,兰州大学口腔医院,0931-8827262,730000
,,,,
,,,,
兰州市城关区盘旋路216号,,兰州大学医院,0931-8843000,730000
,,,,
,,,,
建兰路火星街1号,,兰州第一人民医院,0931-2867286;0931-2352721,730030
,,,,
,,,,
兰州市七里河区龚家坪66号,,兰州电机厂职工医院,0931-2866951(总),730050
,,,,
,,,,
甘肃省兰州市城关区平凉路81-87号,,兰州东立协和医院(民营),0931-8841307,730000
,,,,
,,,,
兰州市安宁区西路106号,,兰州飞控仪器厂职工医院,0931-7662019,730070
,,,,
,,,,
甘肃省兰州市城关区上徐家湾3号,,兰州肺科医院,0931-8321447,730046
,,,,
九龙坡区白新街19号,,九龙坡区白市驿市民医院,023-66232026,400029
,,,,
,,,,
重庆市九龙坡区中梁山半山二村6号,,九龙坡区第二人民医院,023-65265455,400052
,,,,
,,,,
九龙坡区石坪桥石坪村,,九龙坡区第二中医院,023-68824586,400050
,,,,
,,,,
重庆市九龙坡区杨家坪兴胜路2号,,九龙坡区第三人民医院,023-68651391,400050
,,,,
,,,,
九龙坡区冬笋街16号,,九龙坡区第四人民医院,023-66231614,400029
,,,,
,,,,
重庆市九龙坡区白市驿镇白新街19号,,九龙坡区第五人民医院,023-65702026,401329
,,,,
,,,,
重庆市九龙坡区杨家坪前进路23号,,九龙坡区第一人民医院,023-68429687,400050
,,,,
,,,,
九龙坡区李家沱马王坪正街,,九龙坡区第一中医院,023-68603989,400050
,,,,
,,,,
重庆市九龙坡区石坪桥石坪村新二幢,,九龙坡区妇幼保健院,023-68823629,400051
,,,,
,,,,
重庆市九龙坡区中梁山街149号,,九龙坡区精神病医院,023-65264425,400052
,,,,
,,,,
九龙坡区杨家坪前进路23号,,九龙坡区九龙坡区第一人民医院,023-68651391,400050
,,,,
,,,,
重庆市九龙坡区西彭镇,,九龙坡区中西医结合医院,023-65801617,401326
,,,,
,,,,
九龙坡区杨家坪,,九龙坡区中医骨科医院,023-68822531,400050
,,,,
,,,,
九龙坡区石坪桥冶金三村,,十八冶金建设公司职工医院,023-68822091,400050
,,,,
,,,,
重庆市九龙坡区杨家坪梅子榜,,西南车辆制造厂职工医院重庆渝西医院,023-68409346,400050
,,,,
长乐市金峰镇六林小学对面,,长乐金峰福康医院(民营),,350211
,,,,
,,,,
长乐市金峰镇解放路146号,,长乐市第二医院,0591-28672009,350211
,,,,
,,,,
长乐市西洋路14号,,长乐市妇幼保健院,0591-28922409,350200
,,,,
,,,,
长乐市,,长乐市精神病医院,0591-28922759,350200
,,,,
,,,,
福建省长乐市航城镇秀江村友谊路,,长乐市皮肤病防治院,0591-8938845,350200
,,,,
,,,,
长乐市十洋村建设路13号,,长乐市医院,0591-28801819,350200
,,,,
,,,,
长乐市建设路41号,,长乐市中医院,0591-28935118,350200
,,,,
,,,,
福清市,,福清市32822部队医院,0591-85222877,350300
,,,,
,,,,
福清市农田街23号,,福清市第二医院,0591-85771134,350315
,,,,
,,,,
东张居委会新村街66号,,福清市东张医院,0591-85391014,350305
,,,,
,,,,
福清市,,福清市妇幼保健院,0591-85261760,350300
,,,,
,,,,
福清市高山村安泰路6号,,福清市高山医院,0591-85881249;85880460,350319
,,,,
,,,,
福清市棋山村宏路街35号,,福清市红十字医院,0591-85380640,350301
,,,,
,,,,
福清市下梧村,,福清市皮肤病防治院,0591-85222925,350300
,,,,
,,,,
福清市南门外,,福清市融强医院,0591-5239287,350300
,,,,
乌鲁木齐市火车西站分局6号公路,,西山铁路医院,0991-4526412,830000
,,,,
,,,,
新疆木齐兰州军区总医院,,兰州军工乌鲁木齐总医院,0991-4992005;4842256(总机),830000
,,,,
,,,,
新疆乌鲁木齐市东山区厂前路,,乌鲁木齐石油化工总厂医院,0991-6901598,830019
,,,,
,,,,
乌鲁木齐市钱塘江路27号,,乌鲁木齐市长江骨髓炎医院,0991-5851342,830006
,,,,
,,,,
乌鲁木齐市团结路179号,,乌鲁木齐市瓷厂职工医院,0991-2872771,830019
,,,,
,,,,
乌鲁木齐市天山区碱泉街136号,,乌鲁木齐市第四人民医院,0991-2649272,830002
,,,,
,,,,
新疆乌鲁木齐市健康路91号,,乌鲁木齐市第一人民医院,0991-2333553,830002
,,,,
,,,,
乌市天山区健康路91号,,乌鲁木齐市第一人民医院(市儿童医院）,0991-2333594,830000
,,,,
,,,,
乌鲁木齐市天山区健康路91号,,乌鲁木齐市第一人民医院乌鲁木齐市儿童医院,0991-2333594,830000
,,,,
,,,,
乌鲁木齐市河北东路2号,,乌鲁木齐市渡州中医院,0991-6625168;6612175,830011
,,,,
,,,,
乌鲁木齐市小地窝堡,,乌鲁木齐市儿童福利院,0991-3968010,830016
,,,,
,,,,
乌鲁木齐市解放南路138号,,乌鲁木齐市妇幼保健院,0991-8554656,830001
,,,,
,,,,
新疆乌鲁木齐市新兴街l号,,乌鲁木齐市结核病防治所,0991-2644669,830002
,,,,
,,,,
乌鲁木齐市乌昌路10号,,乌鲁木齐市精神病福利院,0991-3972604,830016
,,,,
,,,,
乌鲁木齐市碱泉街136号,,乌鲁木齐市精神病院,0991-2617697,830002
,,,,
呼伦贝盟额尔古纳左旗,,额尔古纳左旗中医院,0470-5222738,022350
,,,,
,,,,
呼伦贝尔盟海拉尔区健康街,,海拉尔区传染病院,0470-8332096,021000
,,,,
,,,,
呼伦贝盟海拉尔区西交界街28号,,海拉尔区第二人民医院,0470-8334006,021000
,,,,
,,,,
呼伦贝盟海拉尔区医院街,,海拉尔区第一人民医院,0470-8334370,021000
,,,,
,,,,
海拉尔区,,海拉尔区妇幼保健站,0470-8333351,021000
,,,,
,,,,
呼伦贝尔盟海拉尔区西大街192号,,海拉尔区曙光医院,0470-8333003,021000
,,,,
,,,,
扎兰屯市石桥,,呼伦贝尔盟第二人民医院(结核医院),0470-3204971,0162650
,,,,
,,,,
呼伦贝尔盟,,呼伦贝尔盟妇幼保健站,0470-8222312,0162650
,,,,
,,,,
呼伦贝尔海拉尔胜利大街,,呼伦贝尔盟人民医院,0470-8254159、8222459,021008
,,,,
,,,,
新巴尔虎左旗,,新巴尔虎左旗妇幼保健站,0470-6602492,021200
,,,,
,,,,
牙克石市,,牙克石市林业中心医院,0470-7303297,022150
,,,,
,,,,
扎兰屯市,,扎兰屯市保健站,0470-3206104,026265
,,,,
,,,,
扎兰屯市秀水路52号院,,扎兰屯市第二三三医院,0470-3202833,0162650
,,,,
,,,,
扎兰屯市中央南路,,扎兰屯市第三医院,0470-3212505(门诊),0162650
,,,,
,,,,
呼市钢铁路大街,,呼市第三医院,0471-3958209(总机),010050
,,,,
浦东新区上南路南村137号,,浦东新家周家渡地段医院,021-58839267,200126
,,,,
,,,,
上海市浦东新区华夏东路3018弄46号,,浦东新区传染病医院,021-68680068,201200
,,,,
,,,,
上海市浦东新区即墨路150号,,浦东新区东方医院,021-38804518,200120
,,,,
,,,,
上海市浦东新区龚路镇北首庙后4号,,浦东新区肺科医院,021-58562146,201209
,,,,
,,,,
上海市浦东新区川沙镇南桥路381号,,浦东新区妇幼保健院,021-58982862,201200
,,,,
,,,,
上海市浦东新区苗圃路219号,,浦东新区公利医院,021-58858730,200135
,,,,
,,,,
龚路镇南首,,浦东新区龚路精神病康复院,021-68976671,201209
,,,,
,,,,
浦东新区莱阳路512号,,浦东新区沪东地段医院,021-58464269,200129
,,,,
,,,,
浦东新区玉兰路96号,,浦东新区花木地段医院,021-58448654,201204
,,,,
,,,,
上海市浦东新区源深路622号,,浦东新区精神卫生中心,021-58318875,200122
,,,,
,,,,
浦东新区商城路887号,,浦东新区崂山西路地段医院,021-58880728,200120
,,,,
,,,,
浦东新区浦三路696号,,浦东新区六里地段医院,021-50778227,200125
,,,,
,,,,
浦东新区乳山路235弄1号,,浦东新区梅园地段医院,021-58303066,200120
,,,,
,,,,
上海市浦东新区浦东南路2400号,,浦东新区浦南医院,021-58892700,200125
,,,,
,,,,
上海市浦东新区川沙镇川环南路490号,,浦东新区人民医院,021-58981990,201200
,,,,
安义县鼎湖镇联愈路91号,,安义县不育症专科医院,0791-3380054,330500
,,,,
,,,,
安义县龙津镇,,安义县妇幼保健所,0791-3421145,330500
,,,,
,,,,
江西省南昌市安义县文峰路59号,,安义县人民医院,0791-3424788,330500
,,,,
,,,,
安义县文峰路59号,,安义县医院,0791-3424788,330500
,,,,
,,,,
安义县龙津镇,,安义县中医院,0791-3422517,330500
,,,,
,,,,
进贤县民安路30号,,进贤县妇幼保健所,0791-5677575,331700
,,,,
,,,,
江西省南昌市进贤县民和镇南门路18号,,进贤县康复医院,0791-5665349,331700
,,,,
,,,,
进贤县民安路59号,,进贤县人民医院,0791-5663186,331700
,,,,
,,,,
进贤县云桥,,进贤县中医院,0791-5663865,331700
,,,,
,,,,
南昌市民德路1号,,南昌大学第二附属医院,0791-6297662,330006
,,,,
,,,,
南昌市永外正街17号,,南昌大学第一附属医院,0791-8692711 8692748,330006
,,,,
,,,,
南昌市西湖区广场南路133号,,南昌大学附属第四医院,0791-7022457,330003
,,,,
,,,,
东湖区福州路49号,,南昌大学附属口腔医院/江西省口腔医院,0791-6361040;0791-6360400,330006
,,,,
,,,,
萍乡市吕家冲30号,,南昌大学萍乡医院,0799-6831747,337055
,,,,
,,,,
江西省上饶市庆丰路31号,,南昌大学上饶医院,0739-8251523;0739-8251522,334000
,,,,
宾阳县宾州镇永武街,,宾阳县妇幼保健院,0771-8225471,530400
,,,,
,,,,
广西南宁市宾阳县黎塘镇永安街268号,,宾阳县红水河医院,0771-8272818,530409
,,,,
,,,,
宾阳县宾州镇仁爱街,,宾阳县人民医院,0771-8221116(院办),530400
,,,,
,,,,
宾阳县永武街,,宾阳县中医院,0771-8222522,530400
,,,,
,,,,
广西南宁市横县长安路15号,,横县第二人民医院,0771-7222755,530300
,,,,
,,,,
横县柳明路,,横县妇幼保健院,0771-7222260,530300
,,,,
,,,,
横县谢圩路,,横县骨科医院,0771-7222755,530300
,,,,
,,,,
横县横州镇供德街,,横县人民医院,0771-7222239,530300
,,,,
,,,,
广西南宁市横县槎江路182号,,横县中医医院,0771-7223571,530300
,,,,
,,,,
横县洪德街,,横县中医院,0771-7223571,530300
,,,,
,,,,
隆安县,,隆安县巴发医院,0771-6521105,532700
,,,,
,,,,
隆安县文化路12号,,隆安县妇幼保健院,0771-6522205,532700
,,,,
,,,,
隆安县城厢镇国泰街53号,,隆安县人民医院,0771-6522183,532700
,,,,
,,,,
广西南宁市隆安县城厢镇蝶城西路3号,,隆安县中医医院,0771-6522247,532700
,,,,
,,,,
隆安县蝶城,,隆安县中医院,0771-6522247;6524065,532700
,,,,
桦甸市大兴街122号,,桦甸市财贸医院,0432-6222017,132400
,,,,
,,,,
桦甸市振兴路109号,,桦甸市城区医院,0432-6223546,132400
,,,,
,,,,
桦甸市,,桦甸市第二人民医院,0432-6223546,132400
,,,,
,,,,
桦甸市大兴街177号,,桦甸市第三人民医院,0432-6222017,132400
,,,,
,,,,
桦甸市,,桦甸市妇幼保健站,0432-6224619,132400
,,,,
,,,,
桦甸市,,桦甸市肛肠医院,0432-6224167,132400
,,,,
,,,,
桦甸市,,桦甸市康复医院,0432-6226777,132400
,,,,
,,,,
桦甸市大兴街307号,,桦甸市人民医院,0432-6222226,132400
,,,,
,,,,
吉林省桦甸市振兴路198号,,桦甸市中医医院,0432-6272707,132400
,,,,
,,,,
桦甸市振兴路198号,,桦甸市中医院,0432-6222707,132400
,,,,
,,,,
长春市朝阳区同志街336号,,吉林百合口腔医院(民营),0437-8986101,130051
,,,,
,,,,
长春市绿园区景阳大路2218号,,吉林北方肝胆医院,0431-87688310;0431-87682299,130061
,,,,
,,,,
吉林省长春市南关区自强街218号,,吉林大学第二医院,0431-88975634,130041
,,,,
,,,,
长春市南关区东四马路17号,,吉林大学第二医院民康医院,0431-88755329;0431-88660806,130042
,,,,
,,,,
长春市开运街29号,,吉林大学第三医学院分院,0431-5955677,130012
,,,,
安徽省长丰县,,长丰县第二人民医院,0551-6891029,231141
,,,,
,,,,
长丰县长寿路89号,,长丰县妇幼保健所,0551-6671756,231100
,,,,
,,,,
长丰县,,长丰县妇幼保健站,0551-6671756,231100
,,,,
,,,,
长丰县,,长丰县农场医院,0551-6679609,231100
,,,,
,,,,
长丰县水湖镇长寿路91号,,长丰县人民医院,0551-6671097;6675673,231100
,,,,
,,,,
安徽省长丰县,,长丰县中医院,0551-6671355,231100
,,,,
,,,,
安徽省合肥市肥东县龙岗镇,,肥东县第二人民医院,0551-7675869,231633
,,,,
,,,,
安徽省合肥市肥东县店埠镇石塘路10号,,肥东县精神卫生防治院,0551-7712474,231600
,,,,
,,,,
肥东县店埠镇撮镇路20号,,肥东县人民医院,0551-7711245,231600
,,,,
,,,,
安徽省合肥市肥东县店埠镇人民路78号,,肥东县中医医院,0551-7711283,231600
,,,,
,,,,
肥东县人民路78号,,肥东县中医院,0551-7711283,231600
,,,,
,,,,
肥西县,,肥西县妇幼保健所,0551-8841253,231200
,,,,
,,,,
肥西县人民路16号,,肥西县红十字医院,0551-8841132,231200
,,,,
,,,,
肥西县上派镇中街路5号,,肥西县人民医院,0551-8830598;8830566,231200
,,,,
,,,,
肥西县巢湖南路5号,,肥西县中医院,0551-8843121,231200
,,,,
朝阳区安华西二区11楼,,朝阳区安华医院,010-64234017,100011
,,,,
,,,,
朝阳区安外沥清厂东,,朝阳区安慧医院,010-64911458,100101
,,,,
,,,,
朝阳区常营村西,,朝阳区常营回民医院,010-65755960,100029
,,,,
,,,,
朝阳区大柳树街9号,,朝阳区慈济医院,010-87709199,100023
,,,,
,,,,
朝阳区王四营大柳树153号,,朝阳区大柳树医院,010-67364412,100023
,,,,
,,,,
朝阳区八里庄延静西里11号楼,,朝阳区第三医院(原朝阳区八里庄医院),010-65005221,100025
,,,,
,,,,
朝阳区东坝13号,,朝阳区东坝医院,010-64372049,100018
,,,,
,,,,
朝阳区六里屯,,朝阳区东风医院,010-65865439,100025
,,,,
,,,,
朝阳区六里屯中街111号,,朝阳区妇幼保健院,010-87789952,100026
,,,,
,,,,
朝阳区高碑店陶家湾,,朝阳区高碑店医院,010-85757762,100029
,,,,
,,,,
朝阳区三间房,,朝阳区管庄医院,010-65762388、65762339,100024
,,,,
,,,,
朝阳区英家坟6号,,朝阳区红庙医院,010-65060088,100025
,,,,
,,,,
朝阳区英家坟6号,,朝阳区红十字会第二医院,010-64947301,100025
,,,,
,,,,
朝阳区金蝉北里,,朝阳区化工路医院,010-67361262,100026
,,,,
,,,,
朝阳区酒仙桥路49号,,朝阳区将台医院,010-64372046,100016
,,,,
呈贡县,,呈贡县妇幼保健所,0871-7477915,650500
,,,,
,,,,
呈贡县城内东门,,呈贡县人民医院,0871-7479136,650500
,,,,
,,,,
云南省昆明市呈贡县龙城镇双龙路,,呈贡县中医医院,0871-7476598,650500
,,,,
,,,,
呈贡县双龙路,,呈贡县中医院,0871-7476598,650500
,,,,
,,,,
昆明市东川区莱元一段居委会,,东川矿务局职工医院,0871-2511303,654102
,,,,
,,,,
东川区新村碧云路,,东川区第二人民医院,0871-2131809,654100
,,,,
,,,,
昆明市东川区新村区团结路45号,,东川市第一人民医院,0871-2122927、2121361,654100
,,,,
,,,,
富民县,,富民县保健所,0871-8811267,650400
,,,,
,,,,
富民县永定街309号,,富民县人民医院,0871-8816205,650400
,,,,
,,,,
云南省昆明市官渡区关上南路159号,,官渡区妇幼保健院,0871-7169242,650200
,,,,
,,,,
昆明市晋宁县晋东路26号,,晋宁县第二人民医院,0871-7811044;0871-7816754;0871-7811162,650605
,,,,
,,,,
晋宁县正和东路,,晋宁县妇幼保健院,0871-7892284;7809442,650600
,,,,
,,,,
晋宁县昆明镇郑和路13号,,晋宁县人民医院,0871-7809924;0871-7892717;0871-7892244,650600
,,,,
,,,,
云南省昆明市永胜路兰花宾馆左侧,,昆明博大医院(民营),0871-3518813,650011
,,,,
,,,,
昆明国家经济技术开发区船舶工业区,,昆明船舶集团公司职工医院,0871-7233068,650236
,,,,
淳安县汾口镇湖塘路16号,,淳安县第二人民医院,0571-64851263,311719
,,,,
,,,,
淳安县新安西路1号,,淳安县第一人民医院,"0571-64812271,0571-64824966",311700
,,,,
,,,,
淳安县千岛湖镇新安东路345号,,淳安县妇幼保健院,0571-64818807,311700
,,,,
,,,,
淳安县千岛湖镇新安西路13号,,淳安县千岛湖城区医院,0571-64822724,311700
,,,,
,,,,
淳安县,,淳安县新安城区医院,0571-64822724,311700
,,,,
,,,,
淳安县,,淳安县新安江开发公司职工医院,0571-64822724,311700
,,,,
,,,,
淳安县骑龙巷13号,,淳安县中医院,0571-64812540,311700
,,,,
,,,,
富阳市新登镇城北路71号,,富阳市第二人民医院,0571-63251244,311404
,,,,
,,,,
富阳市高桥镇高桥东路8号,,富阳市第三人民医院富阳市精神病防治院,0571-63431277;63435838,311402
,,,,
,,,,
富阳市横凉亭路25号,,富阳市妇幼保健院,0571-63369668,311400
,,,,
,,,,
富阳市春秋北路43号,,富阳市结核病防治所,,311400
,,,,
,,,,
浙江省富阳市高桥镇高桥东路8号,,富阳市精神病防治院,0571-63435838,311402
,,,,
,,,,
富阳市富阳镇桂花路4号,,富阳市人民医院,0571-63322551,311400
,,,,
,,,,
富阳市新登镇城南路26号,,富阳市新登中医骨伤科医院,0571-63251341;0571-63251744,311404
,,,,
,,,,
富阳市富阳镇桂花西路63号,,富阳市中医骨伤科医院,0571-63326240;63324728,311400
,,,,
长沙市芙蓉中路三段308号,,长沙爱尔眼科医院(民营),0731-5229201;5229202,410015
,,,,
,,,,
长沙市车站北路251号,,长沙长江医院(民营),0731-2215888;2217000,410001
,,,,
,,,,
长沙市梓园路357号,,长沙方泰医院(民营),0731-2831258,410005
,,,,
,,,,
长沙市八一路479号,,长沙惠民医院(民营),0731-4570790;2225175,410005
,,,,
,,,,
长沙市麓山南路1号,,长沙矿冶研究院医院,0731-8827696,410007
,,,,
,,,,
湖南省长沙市北正街16号,,长沙老年病医院,0731-4444100,410005
,,,,
,,,,
长沙县南托水电八局基地内,,长沙融城医院,0735-6901854,410008
,,,,
,,,,
长沙市梁梨,,长沙韶光医院,0731-4616149,410129
,,,,
,,,,
长沙市,,长沙韶山路医院,0731-5581337,410006
,,,,
,,,,
长沙市五一中路11号,,长沙市按摩医院,0731-4166005,410011
,,,,
,,,,
湖南省长沙市芙蓉区水絮塘34号,,长沙市传染病医院,0731-2223156,410011
,,,,
,,,,
长沙市水絮塘67号,,长沙市传染病院长沙市第六医院,0731-2223156,410011
,,,,
,,,,
长沙市开福区长春巷1号,,长沙市第二医院(原长沙市中心医院分院),0731-4313697,410008
,,,,
,,,,
长沙市五一东路33号,,长沙市第七医院,0731-4237347,410001
,,,,
,,,,
长沙市劳动西路176号,,长沙市第三医院,0731-5151092,410015
,,,,
湖北省武汉市汉南区东城垸农场,,东城垸农场职工医院,027-84851425,430091
,,,,
,,,,
武汉市武珞路627号,,广州军区武汉总医院,027-68878888,430070
,,,,
,,,,
武汉市汉南区汉南农场,,汉南区汉南农场职工医院,027-84851020;027-84391029,430092
,,,,
,,,,
武汉市汉南区银莲湖农场,,汉南区银莲湖农场职工医院,027-84851671,430092
,,,,
,,,,
潜江市,,江汉石油第二医院,0728-6575979、6761640,433121
,,,,
,,,,
湖北省潜江市广华办事处向阳矿区江汉一村振兴路4号,,江汉石油管理局第二职工医院,0728-6575156,433121
,,,,
,,,,
潜江市广华办事处向阳矿区建新路1号,,江汉石油管理局建设工程处职工医院,0728-6587523,433123
,,,,
,,,,
利川市建南镇,,江汉石油管理局天然气处职工医院,0718-7551225,445412
,,,,
,,,,
潜江市周矶办事处汉沙路1号,,江汉石油管理局运输处职工医院,0728-6584542,433119
,,,,
,,,,
湖北省潜江市广华办事处安康路3号,,江汉石油管理局中心医院,0728-6502722,433124
,,,,
,,,,
潜江市五七矿区江汉一村先锋路1号,,江汉石油管理局钻井工程处职工医院,0728-6574816,433121
,,,,
,,,,
湖北省武汉市江夏区纸坊街河南巷14号,,江夏区零三医院,027-84947358,430215
,,,,
,,,,
武汉市武昌武珞路315号,,武昌爱民中医院,027-88056268;88083767,430061
,,,,
,,,,
湖北省武汉市武昌区和平大道820号,,武昌车辆厂职工医院,027-86711995,430062
,,,,
,,,,
湖北省武汉市武昌区新河街新月里5号,,武昌区第三医院,027-88224825,430062
,,,,
太原市五一东街15号,,中山生殖医学医院(民营),0351-4172377;4172477,030001
,,,,
,,,,
山西省古交市马兰矿,,古交矿区医院马兰分院,0351-5174263,030205
,,,,
,,,,
山西省古交市建设路,,古交市妇幼保健院,0351-5141468,030200
,,,,
,,,,
山西省古交市建设路,,古交市人民医院,0351-5141468,030200
,,,,
,,,,
古交市建设路,,古交市人民医院(原古交市妇幼保健院),0351-5141468,030200
,,,,
,,,,
山西省古交市大川东路,,古交市中心医院,0351-5141234,030200
,,,,
,,,,
山西省古交市大川东路,,古交市中医院,0351-5141234,030200
,,,,
,,,,
山西省太原市娄烦县城南大街,,娄烦县妇幼保健院,0351-5322295,030300
,,,,
,,,,
山西省太原市娄烦县,,娄烦县妇幼保健站,0351-5322295,030300
,,,,
,,,,
山西省太原市娄烦县娄烦镇北大街40号,,娄烦县人民医院,0351-5322153,030300
,,,,
,,,,
山西省太原市娄烦县城北大街,,娄烦县中医医院,0351-5322485,030300
,,,,
,,,,
山西省太原市娄烦县北大街3号,,娄烦县中医院,0351-5322485,030300
,,,,
,,,,
山西省太原市清徐县北街,,清徐县第二人民医院,0351-5781023,030400
,,,,
,,,,
山西省太原市清徐县永定街,,清徐县妇幼保健院,0351-5722568,030400
,,,,
,,,,
山西省太原市清徐县湖东大街50号,,清徐县人民医院,0351-5722630;5722197,030400
,,,,
阿城市延川南大街,,阿城市儿童医院,0451-53721946,150300
,,,,
,,,,
阿城市牌路大街20号,,阿城市妇幼保健院,0451-53734704,150300
,,,,
,,,,
阿城市延川南大街,,阿城市骨伤医院,0451-53723676,150300
,,,,
,,,,
阿城市河东街,,阿城市继电器厂职工医院,0451-53722346;53709419,150302
,,,,
,,,,
阿城区牌路大街47号,,阿城市人民医院,0451-53721083;0451-53740069;0451-53741046,150300
,,,,
,,,,
黑龙江省阿城市和平街,,阿城市人民医院分院黑龙江涤纶厂职工医院,0451-53722601;0451-53715429,150316
,,,,
,,,,
阿城市通城街81号,,阿城市中医院,0451-53722706,150300
,,,,
,,,,
宾县宾安,,宾县宾安中心医院,0451-57944148;57944806,150422
,,,,
,,,,
宾县北大直,,宾县妇幼保健院,0451-57983136,150400
,,,,
,,,,
宾县宾州镇文靖路,,宾县口腔病防治所,0451-57982263,150400
,,,,
,,,,
宾州镇西大街,,宾县人民医院,0451-57983643;57982653,150400
,,,,
,,,,
宾县宾州镇东大街,,宾县中医院,0451-57982158;57915321,150400
,,,,
,,,,
方正县,,方正县妇幼保健院,0451-57122495;57114015,150800
,,,,
,,,,
方正县,,方正县精神病院,0451-57122055,150800
,,,,
,,,,
方正县高楞,,方正县林业局高楞职工医院,0451-57122956,150822
,,,,
西安市大庆路42号,,西安步长医院(民营),029-88237033,710082
,,,,
,,,,
西安市长安区韦曲北塬十字,,西安长安北里王骨科医院(民营),029-85648266,710100
,,,,
,,,,
西安市长安区韦曲镇,,西安长安龙泉医院,029-85293144;,710100
,,,,
,,,,
西安市长安区韦曲西街,,西安长安秦通医院,029-85293155,710100
,,,,
,,,,
西安市经济开发区文景路17号,,西安长安医院(民营),029-86578000,710016
,,,,
,,,,
西安市长乐中路12号,,西安长乐医院(民营),029-83240771,710043
,,,,
,,,,
碑林区南销门永宁村58号,,西安大同医院,029-87806604、87899186,710068
,,,,
,,,,
西安市永宁村58号,,西安大同医院(民营),029-87806604,710061
,,,,
,,,,
西安市西七中路21号,,西安德通医院(民营),029-87262103,710004
,,,,
,,,,
陕西省西安市新城区长缨东路99号,,西安电力中心医院,029-81004236;029-81004238;029-82525404,710032
,,,,
,,,,
西影路,,西安东郊骨病医院,029-87221766,710061
,,,,
,,,,
西安市长安区王寺镇北街120号,,西安儿童康复医院(民营),029-85808020,710116
,,,,
,,,,
西安市小寨东路11号,,西安二六二医院,029-85258273,710061
,,,,
,,,,
西安碑林区仁义村40号,,西安肝硬化医院,029-82214025,710054
,,,,
,,,,
西安市莲湖区西郊汉城路南路53号,,西安钢铁集团职工医院,029-84299742;84299722,710077
,,,,
江苏省南京市白下区程阁老巷20号,,白下区中医院,025-4409344,210005
,,,,
,,,,
高淳县淳溪镇通贤路19号,,高淳县妇幼保健所,025-57321356,211300
,,,,
,,,,
高淳县淳溪镇春东村10号,,高淳县精神病防治院,025-57311016,211300
,,,,
,,,,
江苏省高淳县淳溪镇通贤路21号,,高淳县人民医院,025-57311232,211300
,,,,
,,,,
高淳县淳溪镇太安路100号,,高淳县中医院,025-57311637,211300
,,,,
,,,,
溧水县在城镇中大街17号,,溧水县妇幼保健所,025-57212633,211200
,,,,
,,,,
江苏省南京市溧水县永阳镇中大街35号,,溧水县人民医院,025-57212964,211200
,,,,
,,,,
溧水县城镇珍珠南路3号,,溧水县中医院,025-57212516,211200
,,,,
,,,,
江苏省南京市六合区大厂太子山路68号,,六合区大厂医院,025-7791551,210035
,,,,
,,,,
江苏省南京市六合区雄州镇健康巷9号,,六合区人民医院,025-7759827,211500
,,,,
,,,,
江苏省南京市六合区雄州镇通玄街7号,,六合区中医院,025-7120550,211500
,,,,
,,,,
南京市南昌路32号,,南京爱康医院(原跃进汽车集团公司职工医院),025-83407788,210037
,,,,
,,,,
南京鼓楼区福建路洪庙巷19号,,南京安康医院,,210003
,,,,
,,,,
南京市浦口区点将台路56号,,南京安宁医院,025-58851769,210032
,,,,
,,,,
南京市浦口区点将台路56号,,南京安宁医院(民营),025-58498216;58851769,210032
,,,,
四川省成都市万和路86号,,成都爱尔眼科医院(民营),028-86262120,610031
,,,,
,,,,
成都市大慈寺路1号,,成都博爱医院(民营),028-8671299;86722999,610016
,,,,
,,,,
成都市二环路东一段14号,,成都成量集团公司医院,028-83264529,610056
,,,,
,,,,
四川省成都市沙湾路262号,,成都成仁眼科医院(民营),028-87684680,610031
,,,,
,,,,
四川省成都市新鸿路149号,,成都城东新鸿医院(民营),028-84382368,610051
,,,,
,,,,
四川省成都市二环路西二段79号,,成都城西医院(民营),028-87363216,610073
,,,,
,,,,
四川省成都市金堂县淮口镇,,成都第二纺织厂职工医院,028-84911903,610404
,,,,
,,,,
成都市金牛区一环路北三段53号,,成都第五冶职工医院,028-83332591,610081
,,,,
,,,,
成都市青羊区东门街54号,,成都第一骨科医院,028-86635247,610031
,,,,
,,,,
成都市二环路东一段25号,,成都电机厂职工医院,028-83267193,610051
,,,,
,,,,
成都市东城根上街39号,,成都儿童专科医院,028-86635080,610015
,,,,
,,,,
成都市东城根上街39号,,成都儿童专科医院成都市青羊区第四人民医院,028-86635080,610015
,,,,
,,,,
成都市青羊区黄田坝,,成都飞机工业(集团)有限责任公司医院,028-87455832,610031
,,,,
,,,,
四川省成都市茶店子路123号,,成都复兴医院(民营),028-87573290,610036
,,,,
,,,,
四川省成都市大墙东街152号,,成都肛肠专科医院,028-86786525,610015
,,,,
沈阳市杭州西路4号,,新城化工厂职工医院,024-89864740,110121
,,,,
,,,,
法库县大孤家子村,,法库县第二医院,024-87032260,110405
,,,,
,,,,
法库县河南街,,法库县第一医院,024-87126545;87122522,110400
,,,,
,,,,
法库县五台子村,,法库县精神病防治院,024-87176118,110408
,,,,
,,,,
辽宁省沈阳市法库县法库镇团结街,,法库县中医医院,024-87122708,110400
,,,,
,,,,
法库县团结街,,法库县中医院,024-87122708,110400
,,,,
,,,,
沈阳市皇姑区明廉路45号,,皇姑区红十字会肛肠医院,024-86719199,110000
,,,,
,,,,
康平县张强镇,,康平县第二人民医院,024-87242169,110514
,,,,
,,,,
康平县康平镇向阳街,,康平县妇幼保健站,024-87342304,110500
,,,,
,,,,
康平县吴斌街,,康平县精神病防治院,024-87342182,110500
,,,,
,,,,
康平县前进街,,康平县人民医院,024-87342302,110500
,,,,
,,,,
辽宁省沈阳市康平县贺炯街,,康平县人民中医院,024-87342184,110500
,,,,
,,,,
辽宁省沈阳市康平县张强镇,,康平县中西医结合医院,024-87240169,110514
,,,,
,,,,
康平县前进街,,康平县中医院,024-87342184,110500
,,,,
,,,,
辽中县北街,,辽中县传染病院,024-87882195;,110200
,,,,
登封市,,登封市第二人民医院,0371-2865801,452740
,,,,
,,,,
登封市,,登封市第三人民医院,0371-62872850,452740
,,,,
,,,,
河南省登封市少林路69号,,登封市妇幼保健院,0371-2865800,452470
,,,,
,,,,
登封市少林大道69号,,登封市妇幼保健院登封市第二人民医院,0371-62865808,452740
,,,,
,,,,
登封市,,登封市骨科医院,0371-62866120,452470
,,,,
,,,,
登封市少林村,,登封市红十字会少林医院,0371-2849047,452491
,,,,
,,,,
登封市少林大道126号,,登封市人民医院,0371-62890601;0371-62890602,452740
,,,,
,,,,
登封市,,登封市三康医院,0371-2873954,452470
,,,,
,,,,
登封市,,登封市三康医院（民营),0371-62873954,452470
,,,,
,,,,
登封市东关村,,登封市水利医院,0371-62872033,452470
,,,,
,,,,
登封市西关街6号,,登封市胃肠病专科,0371-2872324,452470
,,,,
,,,,
登封市少林大道218号,,登封市胃肠道疾病研究所附属医院,0371-62872324,452470
,,,,
,,,,
登封市中岳大街,,登封市中医院,0371-62862265,452470
,,,,
,,,,
巩义市文化街22号,,巩义市按摩康复医院,0371-64351262,451200
,,,,
,,,,
巩义市孝义路93号,,巩义市第二人民医院,0371-64352033;64397224,451200
,,,,
辛集市建设街东段77号,,和平复明眼科医院(民营),0311-3222447,052360
,,,,
,,,,
河北省高邑县新建大街42号,,高邑县医院,0311-84031096,051330
,,,,
,,,,
河北省高邑县旧城大街99号,,高邑县中医院,0311-84033477,051330
,,,,
,,,,
河北省藁城市廉州路165号,,藁城市妇幼保健院,0311-8149818,052160
,,,,
,,,,
河北省藁城市,,藁城市康复医院,0311-88120753,052160
,,,,
,,,,
河北省藁城市,,藁城市廉州医院,0311-88043295,052160
,,,,
,,,,
河北省藁城市市府路36号,,藁城市人民医院,0311-88141503;88141501,052160
,,,,
,,,,
河北省藁城市,,藁城市糖尿病医院,0311-88087489,052160
,,,,
,,,,
河北省藁城市,,藁城市中西医结合医院,0311-8149818,052160
,,,,
,,,,
河北省藁城市廉州路西头,,藁城市中西医结合医院藁城市中医院,0311-8122818;8122811,052160
,,,,
,,,,
河北省晋州市,,晋州市妇幼保健院,0311-84322624,052260
,,,,
,,,,
河北省晋州市,,晋州市偏瘫医院,0311-84400020,052260
,,,,
,,,,
河北省晋州市朝阳街1号,,晋州市人民医院,0311-4322131,052260
,,,,
,,,,
河北省晋州市朝阳街1号,,晋州市医院,0311-84322131;84314525,052260
,,,,
,,,,
河北省晋州市朝阳街12号,,晋州市中医院,0311-84326505,052260
,,,,
广州市白云同和镇,,白云农工商联合公司职工医院,020-87230543,510515
,,,,
,,,,
白云区广园西路344号,,白云区妇幼保健院,020-86563347,510400
,,,,
,,,,
广州市同和白云山制药总厂内,,白云山企业集团中心医院,020-87713685,510515
,,,,
,,,,
从化市新城西路74-76号,,从化市妇幼保健院,020-87912514,510920
,,,,
,,,,
从化市朝阳街1号,,从化市人民医院,020-87922101;87916524,510900
,,,,
,,,,
从化市镇北路21号,,从化市中医院,020-87930394,510900
,,,,
,,,,
广东省广州市番禺区桥清河东路2号,,番禺区妇幼保健院,020-84629993,511400
,,,,
,,,,
广州市握山新村,,广州白云精神康复医院,020-87715065、37385800,510515
,,,,
,,,,
广州市白云区同和镇握山新村17号,,广州白云精神康复医院(民营),020-87715065;37385800,510515
,,,,
,,,,
广州市白云区太和中路53号,,广州白云区太和医院,020-87429013,510540
,,,,
,,,,
广州市西湾路同德围小区,,广州白云同德医院(民营),020-86492010,510407
,,,,
,,,,
广州市白云区白云大道北586号,,广州白云心理医院,020-87470258,510440
,,,,
,,,,
广州市天河区天河路502号,,广州长安医院(民营),020-87583750(总),510635
,,,,
,,,,
广州市新港西路167号,,广州大肿瘤医院/广州新海医院(原广州海员医院),020-84457238、84102440,510300
,,,,
,,,,
广州市车陂街,,广州氮肥厂职工医院,020-82302950,510661
,,,,
即墨市店机镇,,即墨市第二人民医院,0532-85501099,266200
,,,,
,,,,
即墨市刘家庄一村,,即墨市第六人民医院,0532-83587257,266200
,,,,
,,,,
即墨市灵山镇,,即墨市第七人民医院,0532-84531023,266219
,,,,
,,,,
即墨市共济街30号,,即墨市第三人民医院,0532-88512156,266200
,,,,
,,,,
即墨市蓝村镇,,即墨市第四人民医院,0532-82590337,266200
,,,,
,,,,
即墨市中王村,,即墨市第五人民医院,0532-86503007,266200
,,,,
,,,,
即墨市城南工业园内,,即墨市东方医院(民营),0532-85803000,266200
,,,,
,,,,
即墨市振华街144号,,即墨市妇幼保健站,0532-88510766,266200
,,,,
,,,,
即墨市青威路电大北,,即墨市济康医院(民营),,266200
,,,,
,,,,
即墨市健民街4号,,即墨市人民医院,0532-88513099;0532-88516815;0532-88514314,266200
,,,,
,,,,
山东省即墨市烟青路512号,,即墨市市北医院,0532-7508177,266221
,,,,
,,,,
山东省即墨市烟青路95号,,即墨市市南医院,0532-8562229,266200
,,,,
,,,,
即墨市兰岙路141号,,即墨市中医院,0532-88522737;0532-88555086,266200
,,,,
,,,,
即墨市青石路12号,,即墨同德眼科医院(民营),,266200
,,,,
,,,,
胶南市泊里镇,,胶南市第二人民医院,0532-84181063;84181664,266409
,,,,
